[{"OBJECT_NAME":"STARLINK-36346","OBJECT_ID":"2026-032X","EPOCH":"2026-03-04T13:39:45.760896","MEAN_MOTION":15.80893273,"ECCENTRICITY":0.00013773,"INCLINATION":97.2839,"RA_OF_ASC_NODE":249.8974,"ARG_OF_PERICENTER":74.8674,"MEAN_ANOMALY":285.2746,"EPHEMERIS_TYPE":0,"CLASSIFICATION_TYPE":"U","NORAD_CAT_ID":67818,"ELEMENT_SET_NO":999,"REV_AT_EPOCH":398,"BSTAR":0.001226661,"MEAN_MOTION_DOT":0.00242318,"MEAN_MOTION_DDOT":0},{"OBJECT_NAME":"STARLINK-36788","OBJECT_ID":"2026-032Y","EPOCH":"2026-03-04T12:00:00.999648","MEAN_MOTION":15.75169534,"ECCENTRICITY":0.00017962,"INCLINATION":97.284,"RA_OF_ASC_NODE":249.7839,"ARG_OF_PERICENTER":66.6364,"MEAN_ANOMALY":162.746,"EPHEMERIS_TYPE":0,"CLASSIFICATION_TYPE":"U","NORAD_CAT_ID":67819,"ELEMENT_SET_NO":999,"REV_AT_EPOCH":388,"BSTAR":-1.0135096e-5,"MEAN_MOTION_DOT":-1.64e-5,"MEAN_MOTION_DDOT":0},{"OBJECT_NAME":"STARLINK-36353","OBJECT_ID":"2026-032Z","EPOCH":"2026-03-04T12:00:00.999648","MEAN_MOTION":15.75136361,"ECCENTRICITY":0.00013356,"INCLINATION":97.284,"RA_OF_ASC_NODE":249.793,"ARG_OF_PERICENTER":73.3958,"MEAN_ANOMALY":177.9944,"EPHEMERIS_TYPE":0,"CLASSIFICATION_TYPE":"U","NORAD_CAT_ID":67820,"ELEMENT_SET_NO":999,"REV_AT_EPOCH":394,"BSTAR":0.00037737435,"MEAN_MOTION_DOT":0.00056399,"MEAN_MOTION_DDOT":0},{"OBJECT_NAME":"STARLINK-36644","OBJECT_ID":"2026-033A","EPOCH":"2026-03-04T13:55:56.902944","MEAN_MOTION":15.8218818,"ECCENTRICITY":0.00024166,"INCLINATION":42.9972,"RA_OF_ASC_NODE":302.8373,"ARG_OF_PERICENTER":255.9859,"MEAN_ANOMALY":104.0745,"EPHEMERIS_TYPE":0,"CLASSIFICATION_TYPE":"U","NORAD_CAT_ID":67821,"ELEMENT_SET_NO":999,"REV_AT_EPOCH":381,"BSTAR":0.002240601,"MEAN_MOTION_DOT":0.00503798,"MEAN_MOTION_DDOT":0},{"OBJECT_NAME":"STARLINK-36643","OBJECT_ID":"2026-033B","EPOCH":"2026-03-04T13:54:52.051968","MEAN_MOTION":15.8225018,"ECCENTRICITY":0.00032535,"INCLINATION":42.9973,"RA_OF_ASC_NODE":302.8312,"ARG_OF_PERICENTER":239.1382,"MEAN_ANOMALY":120.917,"EPHEMERIS_TYPE":0,"CLASSIFICATION_TYPE":"U","NORAD_CAT_ID":67822,"ELEMENT_SET_NO":999,"REV_AT_EPOCH":381,"BSTAR":0.0024986636,"MEAN_MOTION_DOT":0.00567758,"MEAN_MOTION_DDOT":0},{"OBJECT_NAME":"STARLINK-36646","OBJECT_ID":"2026-033C","EPOCH":"2026-03-04T12:00:00.999648","MEAN_MOTION":15.81941718,"ECCENTRICITY":0.00020898,"INCLINATION":42.9982,"RA_OF_ASC_NODE":303.3086,"ARG_OF_PERICENTER":256.8398,"MEAN_ANOMALY":12.719,"EPHEMERIS_TYPE":0,"CLASSIFICATION_TYPE":"U","NORAD_CAT_ID":67823,"ELEMENT_SET_NO":999,"REV_AT_EPOCH":383,"BSTAR":0.00017487606,"MEAN_MOTION_DOT":0.00036318,"MEAN_MOTION_DDOT":0},{"OBJECT_NAME":"STARLINK-36647","OBJECT_ID":"2026-033D","EPOCH":"2026-03-04T03:16:19.216992","MEAN_MOTION":15.8216258,"ECCENTRICITY":0.00020094,"INCLINATION":42.9972,"RA_OF_ASC_NODE":305.5273,"ARG_OF_PERICENTER":251.1858,"MEAN_ANOMALY":108.8796,"EPHEMERIS_TYPE":0,"CLASSIFICATION_TYPE":"U","NORAD_CAT_ID":67824,"ELEMENT_SET_NO":999,"REV_AT_EPOCH":374,"BSTAR":0.0017124411,"MEAN_MOTION_DOT":0.00378866,"MEAN_MOTION_DDOT":0},{"OBJECT_NAME":"STARLINK-36648","OBJECT_ID":"2026-033E","EPOCH":"2026-03-04T03:15:14.357376","MEAN_MOTION":15.82143241,"ECCENTRICITY":0.00024039,"INCLINATION":42.9969,"RA_OF_ASC_NODE":305.5215,"ARG_OF_PERICENTER":257.2047,"MEAN_ANOMALY":102.8556,"EPHEMERIS_TYPE":0,"CLASSIFICATION_TYPE":"U","NORAD_CAT_ID":67825,"ELEMENT_SET_NO":999,"REV_AT_EPOCH":374,"BSTAR":0.0014845078,"MEAN_MOTION_DOT":0.00326054,"MEAN_MOTION_DDOT":0},{"OBJECT_NAME":"STARLINK-35865","OBJECT_ID":"2026-033F","EPOCH":"2026-03-04T03:14:09.699936","MEAN_MOTION":15.82121602,"ECCENTRICITY":0.00015113,"INCLINATION":42.9966,"RA_OF_ASC_NODE":305.5147,"ARG_OF_PERICENTER":278.9819,"MEAN_ANOMALY":81.0882,"EPHEMERIS_TYPE":0,"CLASSIFICATION_TYPE":"U","NORAD_CAT_ID":67826,"ELEMENT_SET_NO":999,"REV_AT_EPOCH":374,"BSTAR":0.0015175219,"MEAN_MOTION_DOT":0.00333255,"MEAN_MOTION_DDOT":0},{"OBJECT_NAME":"STARLINK-36289","OBJECT_ID":"2026-033G","EPOCH":"2026-03-04T15:20:23.325504","MEAN_MOTION":15.82393957,"ECCENTRICITY":0.0002555,"INCLINATION":42.9969,"RA_OF_ASC_NODE":302.4135,"ARG_OF_PERICENTER":261.6151,"MEAN_ANOMALY":98.4431,"EPHEMERIS_TYPE":0,"CLASSIFICATION_TYPE":"U","NORAD_CAT_ID":67827,"ELEMENT_SET_NO":999,"REV_AT_EPOCH":382,"BSTAR":0.0037335222,"MEAN_MOTION_DOT":0.00886965,"MEAN_MOTION_DDOT":0},{"OBJECT_NAME":"STARLINK-36670","OBJECT_ID":"2026-033H","EPOCH":"2026-03-04T03:12:00.150048","MEAN_MOTION":15.82133026,"ECCENTRICITY":0.00021714,"INCLINATION":42.9973,"RA_OF_ASC_NODE":305.5037,"ARG_OF_PERICENTER":254.9527,"MEAN_ANOMALY":105.1105,"EPHEMERIS_TYPE":0,"CLASSIFICATION_TYPE":"U","NORAD_CAT_ID":67828,"ELEMENT_SET_NO":999,"REV_AT_EPOCH":374,"BSTAR":0.0012632725,"MEAN_MOTION_DOT":0.00275619,"MEAN_MOTION_DDOT":0},{"OBJECT_NAME":"STARLINK-36144","OBJECT_ID":"2026-033J","EPOCH":"2026-03-04T13:47:18.609216","MEAN_MOTION":15.82280676,"ECCENTRICITY":0.00031806,"INCLINATION":42.9969,"RA_OF_ASC_NODE":302.788,"ARG_OF_PERICENTER":230.5186,"MEAN_ANOMALY":129.5405,"EPHEMERIS_TYPE":0,"CLASSIFICATION_TYPE":"U","NORAD_CAT_ID":67829,"ELEMENT_SET_NO":999,"REV_AT_EPOCH":381,"BSTAR":0.0031118325,"MEAN_MOTION_DOT":0.00721066,"MEAN_MOTION_DDOT":0},{"OBJECT_NAME":"STARLINK-36611","OBJECT_ID":"2026-033K","EPOCH":"2026-03-04T01:38:56.043744","MEAN_MOTION":15.82086849,"ECCENTRICITY":0.00023765,"INCLINATION":42.997,"RA_OF_ASC_NODE":305.8775,"ARG_OF_PERICENTER":259.6078,"MEAN_ANOMALY":100.4525,"EPHEMERIS_TYPE":0,"CLASSIFICATION_TYPE":"U","NORAD_CAT_ID":67830,"ELEMENT_SET_NO":999,"REV_AT_EPOCH":373,"BSTAR":0.00089814052,"MEAN_MOTION_DOT":0.0019352,"MEAN_MOTION_DDOT":0},{"OBJECT_NAME":"STARLINK-36661","OBJECT_ID":"2026-033L","EPOCH":"2026-03-04T01:37:51.174624","MEAN_MOTION":15.82139829,"ECCENTRICITY":0.00027278,"INCLINATION":42.9968,"RA_OF_ASC_NODE":305.8711,"ARG_OF_PERICENTER":256.8681,"MEAN_ANOMALY":103.1886,"EPHEMERIS_TYPE":0,"CLASSIFICATION_TYPE":"U","NORAD_CAT_ID":67831,"ELEMENT_SET_NO":999,"REV_AT_EPOCH":373,"BSTAR":0.0013312251,"MEAN_MOTION_DOT":0.00291103,"MEAN_MOTION_DDOT":0},{"OBJECT_NAME":"STARLINK-36662","OBJECT_ID":"2026-033M","EPOCH":"2026-03-04T12:00:00.999648","MEAN_MOTION":15.84356576,"ECCENTRICITY":0.00022931,"INCLINATION":42.9965,"RA_OF_ASC_NODE":302.4403,"ARG_OF_PERICENTER":254.4535,"MEAN_ANOMALY":358.8123,"EPHEMERIS_TYPE":0,"CLASSIFICATION_TYPE":"U","NORAD_CAT_ID":67832,"ELEMENT_SET_NO":999,"REV_AT_EPOCH":383,"BSTAR":-7.7622586e-5,"MEAN_MOTION_DOT":-0.00018779,"MEAN_MOTION_DDOT":0},{"OBJECT_NAME":"STARLINK-36659","OBJECT_ID":"2026-033N","EPOCH":"2026-03-04T13:44:04.657632","MEAN_MOTION":15.82261554,"ECCENTRICITY":0.00019459,"INCLINATION":42.9972,"RA_OF_ASC_NODE":302.7704,"ARG_OF_PERICENTER":270.1459,"MEAN_ANOMALY":89.9189,"EPHEMERIS_TYPE":0,"CLASSIFICATION_TYPE":"U","NORAD_CAT_ID":67833,"ELEMENT_SET_NO":999,"REV_AT_EPOCH":381,"BSTAR":0.0028976357,"MEAN_MOTION_DOT":0.00666573,"MEAN_MOTION_DDOT":0}]
