STARLINK-36346          
1 67818U 26032X   26063.56927964  .00242318  00000+0  12267-2 0  9997
2 67818  97.2839 249.8974 0001377  74.8674 285.2746 15.80893273  3987
STARLINK-36788          
1 67819U 26032Y   26063.50001157 -.00001640  00000+0 -10135-4 0  9996
2 67819  97.2840 249.7839 0001796  66.6364 162.7460 15.75169534  3880
STARLINK-36353          
1 67820U 26032Z   26063.50001157  .00056399  00000+0  37737-3 0  9993
2 67820  97.2840 249.7930 0001335  73.3958 177.9944 15.75136361  3941
STARLINK-36644          
1 67821U 26033A   26063.58051971  .00503798  00000+0  22406-2 0  9998
2 67821  42.9972 302.8373 0002416 255.9859 104.0745 15.82188180  3816
STARLINK-36643          
1 67822U 26033B   26063.57976912  .00567758  00000+0  24987-2 0  9991
2 67822  42.9973 302.8312 0003253 239.1382 120.9170 15.82250180  3815
STARLINK-36646          
1 67823U 26033C   26063.50001157  .00036318  00000+0  17488-3 0  9997
2 67823  42.9982 303.3086 0002089 256.8398  12.7190 15.81941718  3834
STARLINK-36647          
1 67824U 26033D   26063.13633353  .00378866  00000+0  17124-2 0  9999
2 67824  42.9972 305.5273 0002009 251.1858 108.8796 15.82162580  3749
STARLINK-36648          
1 67825U 26033E   26063.13558284  .00326054  00000+0  14845-2 0  9998
2 67825  42.9969 305.5215 0002403 257.2047 102.8556 15.82143241  3748
STARLINK-35865          
1 67826U 26033F   26063.13483449  .00333255  00000+0  15175-2 0  9997
2 67826  42.9966 305.5147 0001511 278.9819  81.0882 15.82121602  3743
STARLINK-36289          
1 67827U 26033G   26063.63915886  .00886965  00000+0  37335-2 0  9991
2 67827  42.9969 302.4135 0002555 261.6151  98.4431 15.82393957  3822
STARLINK-36670          
1 67828U 26033H   26063.13333507  .00275619  00000+0  12633-2 0  9993
2 67828  42.9973 305.5037 0002171 254.9527 105.1105 15.82133026  3743
STARLINK-36144          
1 67829U 26033J   26063.57452094  .00721066  00000+0  31118-2 0  9996
2 67829  42.9969 302.7880 0003180 230.5186 129.5405 15.82280676  3811
STARLINK-36611          
1 67830U 26033K   26063.06870421  .00193520  00000+0  89814-3 0  9995
2 67830  42.9970 305.8775 0002376 259.6078 100.4525 15.82086849  3738
STARLINK-36661          
1 67831U 26033L   26063.06795341  .00291103  00000+0  13312-2 0  9998
2 67831  42.9968 305.8711 0002727 256.8681 103.1886 15.82139829  3732
STARLINK-36662          
1 67832U 26033M   26063.50001157 -.00018779  00000+0 -77623-4 0  9998
2 67832  42.9965 302.4403 0002293 254.4535 358.8123 15.84356576  3837
STARLINK-36659          
1 67833U 26033N   26063.57227613  .00666573  00000+0  28976-2 0  9997
2 67833  42.9972 302.7704 0001945 270.1459  89.9189 15.82261554  3817
